STARLINK-30830          
1 58194U 23167V   26067.27905089 -.00000878  00000+0 -23033-4 0  9996
2 58194  43.0047 150.9804 0002253 291.0825  68.9786 15.26745059130779
VSP RF A1               
1 59135U 24043AP  26066.03073316  .00000577  00000+0  25199-4 0  9997
2 59135  97.5247 201.5379 0009431 234.6315 125.4042 15.26179596111403
